EOSSAT-1                
1 55053U 23001AW  26068.73619225  .00007695  00000+0  24844-3 0  9992
2 55053  97.3357 130.2294 0011263 110.3168 249.9285 15.32339828176689
STARLINK-35472          
1 65913U 25225D   26068.73578253  .00044421  00000+0  15029-2 0  9995
2 65913  53.1582 165.5738 0001344  93.6495 266.4659 15.30201345 24416
