[{"OBJECT_NAME":"EOSSAT-1","OBJECT_ID":"2023-001AW","EPOCH":"2026-03-09T17:40:07.010400","MEAN_MOTION":15.32339828,"ECCENTRICITY":0.00112629,"INCLINATION":97.3357,"RA_OF_ASC_NODE":130.2294,"ARG_OF_PERICENTER":110.3168,"MEAN_ANOMALY":249.9285,"EPHEMERIS_TYPE":0,"CLASSIFICATION_TYPE":"U","NORAD_CAT_ID":55053,"ELEMENT_SET_NO":999,"REV_AT_EPOCH":17668,"BSTAR":0.00024844399,"MEAN_MOTION_DOT":7.695e-5,"MEAN_MOTION_DDOT":0},{"OBJECT_NAME":"STARLINK-35472","OBJECT_ID":"2025-225D","EPOCH":"2026-03-09T17:39:31.610592","MEAN_MOTION":15.30201345,"ECCENTRICITY":0.00013438,"INCLINATION":53.1582,"RA_OF_ASC_NODE":165.5738,"ARG_OF_PERICENTER":93.6495,"MEAN_ANOMALY":266.4659,"EPHEMERIS_TYPE":0,"CLASSIFICATION_TYPE":"U","NORAD_CAT_ID":65913,"ELEMENT_SET_NO":999,"REV_AT_EPOCH":2441,"BSTAR":0.0015029167,"MEAN_MOTION_DOT":0.00044421,"MEAN_MOTION_DDOT":0}]
